     3.04           N: GNSS NAV DATA    G: GPS              RINEX VERSION / TYPE
JPS2RIN v.2.0.191   JAVAD GNSS          20210625 000625 UTC PGM / RUN BY / DATE
    18                                                      LEAP SECONDS
GODS                                    MARKER NAME         COMMENT
40451M128                               MARKER NUMBER       COMMENT
  1130752.3120 -4831349.1180  3994098.9450                  COMMENT
                                                            END OF HEADER
G27 2021 06 24 01 59 44-1.520831137896D-04-6.139089236967D-12 0.000000000000D+00
     1.500000000000D+01 7.231250000000D+01 4.336252050875D-09 2.080850228679D+00
     3.596767783165D-06 9.450974990614D-03-1.415610313416D-07 5.153684047699D+03
     3.527840000000D+05-1.676380634308D-07 1.286603377064D+00-1.862645149231D-08
     9.755137728985D-01 3.894375000000D+02 6.348804108489D-01-8.337132989339D-09
     1.871506527187D-10 1.000000000000D+00 2.163000000000D+03 0.000000000000D+00
     2.000000000000D+00 0.000000000000D+00 1.862645000000D-09 1.500000000000D+01
     3.521400000000D+05 4.000000000000D+00
G32 2021 06 24 01 59 44 1.729372888803D-05-1.591615728103D-12 0.000000000000D+00
     4.000000000000D+00 1.334375000000D+01 5.121999066106D-09 2.836811969954D+00
     6.407499313354D-07 5.020731827244D-03 5.505979061127D-06 5.153672405243D+03
     3.527840000000D+05-4.470348358154D-08-1.861724172467D+00-9.872019290924D-08
     9.569201762749D-01 2.700625000000D+02-2.360872338986D+00-8.046763751438D-09
     2.600108304947D-10 1.000000000000D+00 2.163000000000D+03 0.000000000000D+00
     2.000000000000D+00 0.000000000000D+00 4.656613000000D-10 4.000000000000D+00
     3.477900000000D+05 4.000000000000D+00
G05 2021 06 24 02 00 00-4.585692659020D-05-1.136868377216D-12 0.000000000000D+00
     8.500000000000D+01-7.296875000000D+01 4.402326231701D-09 2.574082344245D+00
    -3.714114427567D-06 6.138375611044D-03 1.275166869164D-05 5.153902488708D+03
     3.528000000000D+05-4.284083843231D-08-2.938517381981D+00-6.519258022308D-08
     9.570346028012D-01 1.324062500000D+02 9.131927224852D-01-7.606388265174D-09
     6.757424330990D-10 1.000000000000D+00 2.163000000000D+03 0.000000000000D+00
     2.000000000000D+00 0.000000000000D+00-1.117587000000D-08 8.500000000000D+01
     3.456600000000D+05 4.000000000000D+00
G08 2021 06 24 02 00 00-2.624886110425D-05-1.477928890381D-12 0.000000000000D+00
     1.180000000000D+02 6.856250000000D+01 4.488044087908D-09 2.177134038509D+00
     3.492459654808D-06 6.354002747685D-03-3.874301910400D-07 5.153617084503D+03
     3.528000000000D+05-2.980232238770D-08 1.269116989988D+00 1.136213541031D-07
     9.669309232284D-01 3.901250000000D+02 6.080680439033D-02-8.409278851647D-09
     1.457203555520D-10 1.000000000000D+00 2.163000000000D+03 0.000000000000D+00
     2.000000000000D+00 0.000000000000D+00 5.122274000000D-09 1.180000000000D+02
     3.494400000000D+05 4.000000000000D+00
G10 2021 06 24 02 00 00-1.484239473939D-04-7.617018127348D-12 0.000000000000D+00
     9.000000000000D+01-6.368750000000D+01 4.099456473103D-09-2.096398012306D+00
    -3.442168235779D-06 6.699021905661D-03 1.173280179501D-05 5.153677246094D+03
     3.528000000000D+05 1.452863216400D-07-2.904188079662D+00-4.284083843231D-08
     9.699323191057D-01 1.572500000000D+02-2.567894382171D+00-7.533885245132D-09
     7.028864208979D-10 1.000000000000D+00 2.163000000000D+03 0.000000000000D+00
     2.000000000000D+00 0.000000000000D+00 2.328306000000D-09 9.000000000000D+01
     3.456600000000D+05 4.000000000000D+00
G12 2021 06 24 02 00 00-5.918415263295D-05-5.229594535194D-12 0.000000000000D+00
     7.000000000000D+01 1.721875000000D+02 3.823373544569D-09-1.439319828191D+00
     8.882954716682D-06 8.342447574250D-03 9.484589099884D-06 5.153732442856D+03
     3.528000000000D+05 1.601874828339D-07 3.112517554678D-01 1.732259988785D-07
     9.736752871754D-01 2.050000000000D+02 1.223573797389D+00-7.733893576282D-09
    -6.035965707914D-11 1.000000000000D+00 2.163000000000D+03 0.000000000000D+00
     2.000000000000D+00 0.000000000000D+00-1.257285000000D-08 7.000000000000D+01
     3.527100000000D+05 4.000000000000D+00
G13 2021 06 24 02 00 00 1.487988047302D-04 4.888534022029D-12 0.000000000000D+00
     9.900000000000D+01 6.312500000000D+00 5.037709840836D-09 1.575137346016D+00
     3.241002559662D-07 5.047185812145D-03 5.243346095085D-06 5.153667272568D+03
     3.528000000000D+05-1.657754182816D-07-1.722741581639D+00 2.793967723846D-08
     9.676476331280D-01 2.830312500000D+02 9.606253513189D-01-8.097122991959D-09
     1.078616357272D-10 1.000000000000D+00 2.163000000000D+03 0.000000000000D+00
     2.000000000000D+00 0.000000000000D+00-1.117587000000D-08 9.900000000000D+01
     3.456600000000D+05 4.000000000000D+00
G15 2021 06 24 02 00 00-1.402799971402D-04 2.614797267597D-12 0.000000000000D+00
     2.500000000000D+01 1.731250000000D+01 5.975248893100D-09 1.232224412350D+00
     1.024454832077D-06 1.324706233572D-02 6.109476089478D-06 5.153621368408D+03
     3.528000000000D+05-2.440065145493D-07-1.971725320400D+00 1.396983861923D-07
     9.287184292161D-01 2.497812500000D+02 9.926684813353D-01-8.733935232031D-09
     3.478716331070D-10 1.000000000000D+00 2.163000000000D+03 0.000000000000D+00
     2.000000000000D+00 0.000000000000D+00-1.071021000000D-08 2.500000000000D+01
     3.456600000000D+05 4.000000000000D+00
G18 2021 06 24 02 00 00 3.451746888459D-04-2.046363078989D-12 0.000000000000D+00
     5.000000000000D+01-1.746875000000D+02 4.169459389005D-09 2.504771440527D-01
    -8.981674909592D-06 1.567352563143D-03 4.775822162628D-06 5.153665597916D+03
     3.528000000000D+05 5.401670932770D-08 2.356286336578D+00 2.793967723846D-08
     9.684546445718D-01 2.916875000000D+02 2.882734810276D+00-8.120338244682D-09
    -1.735786588193D-10 1.000000000000D+00 2.163000000000D+03 0.000000000000D+00
     2.000000000000D+00 0.000000000000D+00-8.381903000000D-09 3.060000000000D+02
     3.456600000000D+05 4.000000000000D+00
G20 2021 06 24 02 00 00 5.208654329181D-04-3.410605131648D-13 0.000000000000D+00
     2.300000000000D+01-8.412500000000D+01 4.821272253913D-09 6.748526724255D-01
    -4.326924681664D-06 6.089984788559D-03 1.239590346813D-05 5.151747980118D+03
     3.528000000000D+05 8.195638656616D-08-3.048057988673D+00 6.705522537231D-08
     9.389963313434D-01 1.321875000000D+02 3.041684018028D+00-7.992832933574D-09
     5.650235354982D-10 1.000000000000D+00 2.163000000000D+03 0.000000000000D+00
     2.000000000000D+00 0.000000000000D+00-8.381903000000D-09 2.300000000000D+01
     3.456600000000D+05 4.000000000000D+00
G23 2021 06 24 02 00 00 9.330781176686D-05-4.547473508865D-12 0.000000000000D+00
     6.400000000000D+01-7.150000000000D+01 4.195531903601D-09-4.858560343340D-01
    -3.663823008537D-06 1.313683227636D-03 1.216493546963D-05 5.153662084579D+03
     3.528000000000D+05 1.303851604462D-08-2.927802923155D+00 7.823109626770D-08
     9.649376476062D-01 1.466562500000D+02 2.619612360341D+00-7.663176344911D-09
     6.625275969337D-10 1.000000000000D+00 2.163000000000D+03 0.000000000000D+00
     2.000000000000D+00 0.000000000000D+00-8.381903000000D-09 5.760000000000D+02
     3.456600000000D+05 4.000000000000D+00
G24 2021 06 24 02 00 00 1.461524516344D-04 1.682565198280D-11 0.000000000000D+00
     1.600000000000D+01-7.093750000000D+00 5.400224941045D-09 2.784069112339D-01
    -2.477318048477D-07 1.116999832448D-02 8.270144462585D-06 5.153720256805D+03
     3.528000000000D+05 1.117587089539D-08-8.777786166713D-01 1.173466444016D-07
     9.347674550337D-01 2.032187500000D+02 7.412655880928D-01-8.431422631167D-09
    -8.975373860348D-10 1.000000000000D+00 2.163000000000D+03 0.000000000000D+00
     2.000000000000D+00 0.000000000000D+00 2.793968000000D-09 1.600000000000D+01
     3.456600000000D+05 4.000000000000D+00
G27 2021 06 24 02 00 00-1.520835794508D-04-6.139089236967D-12 0.000000000000D+00
     1.160000000000D+02 7.231250000000D+01 4.336252050875D-09 2.083183164621D+00
     3.596767783165D-06 9.450977086090D-03-1.415610313416D-07 5.153684047699D+03
     3.528000000000D+05-1.676380634308D-07 1.286603232235D+00-1.862645149231D-08
     9.755137802131D-01 3.894375000000D+02 6.348812330089D-01-8.337132989339D-09
     1.875078104529D-10 1.000000000000D+00 2.163000000000D+03 0.000000000000D+00
     2.000000000000D+00 0.000000000000D+00 1.862645000000D-09 1.160000000000D+02
     3.456300000000D+05 4.000000000000D+00
G29 2021 06 24 02 00 00-3.691455349326D-04-6.252776074689D-12 0.000000000000D+00
     8.900000000000D+01 4.790625000000D+01 4.157673183777D-09 2.245668978293D+00
     2.535060048103D-06 1.949174678884D-03-1.186504960060D-06 5.153620412827D+03
     3.528000000000D+05-7.823109626770D-08 1.360064061499D+00 5.587935447693D-08
     9.835851483723D-01 4.145625000000D+02 2.186115442654D+00-8.307488897401D-09
     1.589351917173D-10 1.000000000000D+00 2.163000000000D+03 0.000000000000D+00
     2.000000000000D+00 0.000000000000D+00-9.778887000000D-09 8.900000000000D+01
     3.456600000000D+05 4.000000000000D+00
G32 2021 06 24 02 00 00 1.729279756546D-05-1.591615728103D-12 0.000000000000D+00
     9.400000000000D+01 1.334375000000D+01 5.121999066106D-09 2.839145274551D+00
     6.407499313354D-07 5.020730081014D-03 5.504116415977D-06 5.153672410965D+03
     3.528000000000D+05-4.470348358154D-08-1.861724301204D+00-9.872019290924D-08
     9.569201894412D-01 2.700625000000D+02-2.360871910351D+00-8.046763751438D-09
     2.596536727606D-10 1.000000000000D+00 2.163000000000D+03 0.000000000000D+00
     2.000000000000D+00 0.000000000000D+00 4.656613000000D-10 9.400000000000D+01
     3.471900000000D+05 4.000000000000D+00
